[{"OBJECT_NAME":"OBJECT L","OBJECT_ID":"2023-085L","EPOCH":"2026-03-09T23:02:21.999840","MEAN_MOTION":15.29079976,"ECCENTRICITY":0.0005428,"INCLINATION":97.486,"RA_OF_ASC_NODE":178.8598,"ARG_OF_PERICENTER":50.8528,"MEAN_ANOMALY":309.3193,"EPHEMERIS_TYPE":0,"CLASSIFICATION_TYPE":"U","NORAD_CAT_ID":57014,"ELEMENT_SET_NO":999,"REV_AT_EPOCH":15144,"BSTAR":0.00063462603,"MEAN_MOTION_DOT":0.00017871,"MEAN_MOTION_DDOT":0},{"OBJECT_NAME":"STARLINK-33546","OBJECT_ID":"2024-237W","EPOCH":"2026-03-09T10:35:59.782560","MEAN_MOTION":15.27585971,"ECCENTRICITY":0.00012757,"INCLINATION":42.9966,"RA_OF_ASC_NODE":217.7844,"ARG_OF_PERICENTER":277.4764,"MEAN_ANOMALY":82.5943,"EPHEMERIS_TYPE":0,"CLASSIFICATION_TYPE":"U","NORAD_CAT_ID":62287,"ELEMENT_SET_NO":999,"REV_AT_EPOCH":7106,"BSTAR":0.0014051057,"MEAN_MOTION_DOT":0.00038613,"MEAN_MOTION_DDOT":0}]
